NAVSTAR 48 (USA 151)    
1 26407U 00040A   26194.45202080  .00000078  00000+0  00000+0 0  9999
2 26407  54.8487 214.1189 0120544 302.7177 225.1532  2.00557809190473
NAVSTAR 51 (USA 166)    
1 27663U 03005A   26194.04623635  .00000085  00000+0  00000+0 0  9994
2 27663  54.8792 213.9414 0148236  53.1636 317.9078  2.00559112171833
NAVSTAR 54 (USA 177)    
1 28190U 04009A   26194.32136602 -.00000006  00000+0  00000+0 0  9993
2 28190  54.8081 274.6303 0117124 174.2593 188.0486  2.00553732163473
NAVSTAR 56 (USA 180)    
1 28474U 04045A   26194.30524641 -.00000088  00000+0  00000+0 0  9990
2 28474  55.1194 323.8445 0170150 317.0130  98.7272  2.00556928158950
NAVSTAR 57 (USA 183)    
1 28874U 05038A   26194.28692846  .00000000  00000+0  00000+0 0  9990
2 28874  54.8570 272.1231 0128186 296.3927  70.6828  2.00563792152364
INMARSAT 4-F2           
1 28899U 05044A   26194.51814160 -.00000268  00000+0  00000+0 0  9992
2 28899   5.1293  43.6582 0002779  60.6770 157.0798  1.00270501 75787
NAVSTAR 58 (USA 190)    
1 29486U 06042A   26193.60865181  .00000019  00000+0  00000+0 0  9995
2 29486  54.7127 150.3297 0107100  55.0722  81.1518  2.00568349144903
NAVSTAR 59 (USA 192)    
1 29601U 06052A   26194.34506563  .00000080  00000+0  00000+0 0  9991
2 29601  54.9324 212.9692 0084771  90.9975 270.0294  2.00559533143930
NAVSTAR 60 (USA 196)    
1 32260U 07047A   26194.15209012 -.00000037  00000+0  00000+0 0  9992
2 32260  54.1142  78.9955 0167712  87.9420 274.0302  2.00553960137334
COSMOS 2433 [GLONASS-M] 
1 32275U 07052A   26194.19405126 -.00000064  00000+0  00000+0 0  9992
2 32275  65.5610 315.0591 0003428 203.4008 156.5874  2.13104146145617
COSMOS 2432 [GLONASS-M] 
1 32276U 07052B   26194.33467700 -.00000064  00000+0  00000+0 0  9995
2 32276  65.5769 315.1826 0007406 322.4581  89.1987  2.13103099145648
NAVSTAR 61 (USA 199)    
1 32384U 07062A   26194.44170876 -.00000002  00000+0  00000+0 0  9995
2 32384  55.0109 273.0962 0036045 167.3754 169.6583  2.00561466136033
COSMOS 2434 [GLONASS-M] 
1 32393U 07065A   26194.44443271  .00000077  00000+0  00000+0 0  9991
2 32393  64.3200 191.0300 0001273 325.9955 115.7865  2.13101230144333
COSMOS 2436 [GLONASS-M] 
1 32395U 07065C   26194.36545685  .00000078  00000+0  00000+0 0  9997
2 32395  64.3286 191.1050 0017328 353.5290 159.8648  2.13099954144280
NAVSTAR 62 (USA 201)    
1 32711U 08012A   26194.06094561  .00000012  00000+0  00000+0 0  9999
2 32711  54.4999 148.8911 0211659 248.1311 109.5665  2.00573034134275
NAVSTAR 64 (USA 206)    
1 35752U 09043A   26194.29419677 -.00000061  00000+0  00000+0 0  9991
2 35752  56.2266  26.4273 0053738  84.2969  91.8866  2.00552799123888
COSMOS 2456 [GLONASS-M] 
1 36111U 09070A   26194.36769985 -.00000012  00000+0  00000+0 0  9995
2 36111  65.0264  70.0797 0003648 340.5748 200.6348  2.13103670128983
COSMOS 2457 [GLONASS-M] 
1 36112U 09070B   26194.19579927 -.00000012  00000+0  00000+0 0  9992
2 36112  65.0120  69.9289 0004075 121.6619  54.8410  2.13101172128982
COSMOS 2460 [GLONASS-M] 
1 36402U 10007C   26194.43567464 -.00000063  00000+0  00000+0 0  9992
2 36402  65.4040 313.5791 0001817 142.5273 219.9555  2.13101648127299
NAVSTAR 65 (USA 213)    
1 36585U 10022A   26194.44677154  .00000076  00000+0  00000+0 0  9993
2 36585  54.2686 207.5042 0126683  66.1536 339.9758  2.00563636118121
BEIDOU-2 IGSO-1         
1 36828U 10036A   26193.88960631 -.00000103  00000+0  00000+0 0  9992
2 36828  54.3059 162.7278 0059161 225.3005 330.1612  1.00264571 58350
BEIDOU-2 G4             
1 37210U 10057A   26194.50947582 -.00000120  00000+0  00000+0 0  9990
2 37210   3.7088  68.7760 0005678 184.6725  21.2758  1.00269844 57555
BEIDOU-2 IGSO-2         
1 37256U 10068A   26194.50122590 -.00000188  00000+0  00000+0 0  9990
2 37256  47.4996 271.5040 0057008 213.6806  94.9462  1.00273570 57055
BEIDOU-2 IGSO-3         
1 37384U 11013A   26193.51258941 -.00000165  00000+0  00000+0 0  9998
2 37384  62.4426  39.9128 0035266 183.3051 358.3524  1.00260977 55918
GSAT-8                  
1 37605U 11022A   26194.50063883  .00000079  00000+0  00000+0 0  9996
2 37605   2.1967  81.5023 0002737 165.3088 279.8765  1.00272592 53489
BEIDOU-2 IGSO-4         
1 37763U 11038A   26193.91136250 -.00000017  00000+0  00000+0 0  9994
2 37763  54.6038 165.4445 0160342 231.4539 316.2369  1.00279714 54905
GSAT0101 (GALILEO-PFM)  
1 37846U 11060A   26192.48495571 -.00000086  00000+0  00000+0 0  9992
2 37846  56.9857 341.1030 0002335  61.2388 298.7767  1.70475532 91531
GSAT0102 (GALILEO-FM2)  
1 37847U 11060B   26193.00368770 -.00000088  00000+0  00000+0 0  9994
2 37847  56.9863 341.0894 0002305  10.3981 353.6194  1.70475812 91555
COSMOS 2476 [GLONASS-M] 
1 37867U 11064A   26194.44519653 -.00000011  00000+0  00000+0 0  9993
2 37867  65.2845  71.9856 0022141 236.0287 272.9569  2.13103770114322
COSMOS 2477 [GLONASS-M] 
1 37868U 11064B   26194.25139513 -.00000011  00000+0  00000+0 0  9996
2 37868  65.2909  72.0718 0019159 236.9309 303.6393  2.13102972114311
COSMOS 2475 [GLONASS-M] 
1 37869U 11064C   26194.29456664 -.00000011  00000+0  00000+0 0  9990
2 37869  65.2977  72.0922 0024844 251.2565 277.4451  2.13101813114322
